{
  "type": "FeatureCollection",
  "features": [
    {
      "type": "Feature",
      "properties": {
        "norad_id": 66870,
        "name": "STARLINK-36114",
        "group": "last-30-days",
        "lat": 40.71200821597744,
        "lon": 162.19506993884278,
        "alt_km": 392.29019700133176,
        "timestamp": "2025-12-24T16:52:40.179920+00:00",
        "meta_object_name": "STARLINK-36114",
        "meta_object_id": "2025-281Y",
        "meta_epoch": "2025-12-24T06:00:02.000160",
        "meta_mean_motion": 15.58605497,
        "meta_eccentricity": 0.00015198,
        "meta_inclination": 43.0003,
        "meta_ra_of_asc_node": 52.3071,
        "meta_arg_of_pericenter": 282.2513,
        "meta_mean_anomaly": 160.2249,
        "meta_ephemeris_type": 0,
        "meta_classification_type": "U",
        "meta_norad_cat_id": 66870,
        "meta_element_set_no": 999,
        "meta_rev_at_epoch": 314,
        "meta_bstar": -0.029220408,
        "meta_mean_motion_dot": -0.02016904,
        "meta_mean_motion_ddot": 0,
        "tle_line1": "1 66870U 25281Y   25358.25002315 -.02016904  00000+0 -29220-1 0  9995",
        "tle_line2": "2 66870  43.0003  52.3071 0001519 282.2513 160.2249 15.58605497  3148"
      },
      "geometry": {
        "type": "Point",
        "coordinates": [
          162.19506993884278,
          40.71200821597744
        ]
      }
    },
    {
      "type": "Feature",
      "properties": {
        "norad_id": 66871,
        "name": "STARLINK-36095",
        "group": "last-30-days",
        "lat": 40.18520627846127,
        "lon": 164.60981066132229,
        "alt_km": 392.208151793192,
        "timestamp": "2025-12-24T16:52:40.179933+00:00",
        "meta_object_name": "STARLINK-36095",
        "meta_object_id": "2025-281Z",
        "meta_epoch": "2025-12-24T06:00:02.000160",
        "meta_mean_motion": 15.58615978,
        "meta_eccentricity": 0.00012345,
        "meta_inclination": 43.0001,
        "meta_ra_of_asc_node": 52.3013,
        "meta_arg_of_pericenter": 284.8599,
        "meta_mean_anomaly": 159.5299,
        "meta_ephemeris_type": 0,
        "meta_classification_type": "U",
        "meta_norad_cat_id": 66871,
        "meta_element_set_no": 999,
        "meta_rev_at_epoch": 327,
        "meta_bstar": -0.029534773,
        "meta_mean_motion_dot": -0.02075577,
        "meta_mean_motion_ddot": 0,
        "tle_line1": "1 66871U 25281Z   25358.25002315 -.02075577  00000+0 -29535-1 0  9996",
        "tle_line2": "2 66871  43.0001  52.3013 0001234 284.8599 159.5299 15.58615978  3274"
      },
      "geometry": {
        "type": "Point",
        "coordinates": [
          164.60981066132229,
          40.18520627846127
        ]
      }
    },
    {
      "type": "Feature",
      "properties": {
        "norad_id": 66872,
        "name": "STARLINK-36082",
        "group": "last-30-days",
        "lat": 39.60685429490424,
        "lon": 166.99534544012133,
        "alt_km": 392.38730783382744,
        "timestamp": "2025-12-24T16:52:40.179944+00:00",
        "meta_object_name": "STARLINK-36082",
        "meta_object_id": "2025-281AA",
        "meta_epoch": "2025-12-24T06:00:02.000160",
        "meta_mean_motion": 15.58604632,
        "meta_eccentricity": 0.00014105,
        "meta_inclination": 43.0001,
        "meta_ra_of_asc_node": 52.2969,
        "meta_arg_of_pericenter": 284.7786,
        "meta_mean_anomaly": 161.5319,
        "meta_ephemeris_type": 0,
        "meta_classification_type": "U",
        "meta_norad_cat_id": 66872,
        "meta_element_set_no": 999,
        "meta_rev_at_epoch": 314,
        "meta_bstar": -0.02921056,
        "meta_mean_motion_dot": -0.02016171,
        "meta_mean_motion_ddot": 0,
        "tle_line1": "1 66872U 25281AA  25358.25002315 -.02016171  00000+0 -29211-1 0  9993",
        "tle_line2": "2 66872  43.0001  52.2969 0001410 284.7786 161.5319 15.58604632  3144"
      },
      "geometry": {
        "type": "Point",
        "coordinates": [
          166.99534544012133,
          39.60685429490424
        ]
      }
    },
    {
      "type": "Feature",
      "properties": {
        "norad_id": 66873,
        "name": "STARLINK-36128",
        "group": "last-30-days",
        "lat": 37.59617463049943,
        "lon": 173.88066610751605,
        "alt_km": 392.54237737215044,
        "timestamp": "2025-12-24T16:52:40.179954+00:00",
        "meta_object_name": "STARLINK-36128",
        "meta_object_id": "2025-281AB",
        "meta_epoch": "2025-12-24T06:00:02.000160",
        "meta_mean_motion": 15.58611279,
        "meta_eccentricity": 0.00012355,
        "meta_inclination": 43.0002,
        "meta_ra_of_asc_node": 52.2817,
        "meta_arg_of_pericenter": 277.2045,
        "meta_mean_anomaly": 174.8517,
        "meta_ephemeris_type": 0,
        "meta_classification_type": "U",
        "meta_norad_cat_id": 66873,
        "meta_element_set_no": 999,
        "meta_rev_at_epoch": 327,
        "meta_bstar": -0.029311326,
        "meta_mean_motion_dot": -0.02061227,
        "meta_mean_motion_ddot": 0,
        "tle_line1": "1 66873U 25281AB  25358.25002315 -.02061227  00000+0 -29311-1 0  9997",
        "tle_line2": "2 66873  43.0002  52.2817 0001235 277.2045 174.8517 15.58611279  3274"
      },
      "geometry": {
        "type": "Point",
        "coordinates": [
          173.88066610751605,
          37.59617463049943
        ]
      }
    },
    {
      "type": "Feature",
      "properties": {
        "norad_id": 66874,
        "name": "STARLINK-36129",
        "group": "last-30-days",
        "lat": 38.98294800153357,
        "lon": 169.32934497997093,
        "alt_km": 392.2385004881562,
        "timestamp": "2025-12-24T16:52:40.179970+00:00",
        "meta_object_name": "STARLINK-36129",
        "meta_object_id": "2025-281AC",
        "meta_epoch": "2025-12-24T06:00:02.000160",
        "meta_mean_motion": 15.58615172,
        "meta_eccentricity": 0.00010217,
        "meta_inclination": 43.0001,
        "meta_ra_of_asc_node": 52.2914,
        "meta_arg_of_pericenter": 281.1216,
        "meta_mean_anomaly": 167.1029,
        "meta_ephemeris_type": 0,
        "meta_classification_type": "U",
        "meta_norad_cat_id": 66874,
        "meta_element_set_no": 999,
        "meta_rev_at_epoch": 327,
        "meta_bstar": -0.029512294,
        "meta_mean_motion_dot": -0.02073974,
        "meta_mean_motion_ddot": 0,
        "tle_line1": "1 66874U 25281AC  25358.25002315 -.02073974  00000+0 -29512-1 0  9993",
        "tle_line2": "2 66874  43.0001  52.2914 0001021 281.1216 167.1029 15.58615172  3278"
      },
      "geometry": {
        "type": "Point",
        "coordinates": [
          169.32934497997093,
          38.98294800153357
        ]
      }
    },
    {
      "type": "Feature",
      "properties": {
        "norad_id": 66875,
        "name": "STARLINK-36053",
        "group": "last-30-days",
        "lat": 36.83796486303564,
        "lon": 176.08955394901687,
        "alt_km": 392.64013335345317,
        "timestamp": "2025-12-24T16:52:40.179980+00:00",
        "meta_object_name": "STARLINK-36053",
        "meta_object_id": "2025-281AD",
        "meta_epoch": "2025-12-24T06:00:02.000160",
        "meta_mean_motion": 15.5861303,
        "meta_eccentricity": 0.00011033,
        "meta_inclination": 43,
        "meta_ra_of_asc_node": 52.2753,
        "meta_arg_of_pericenter": 287.2709,
        "meta_mean_anomaly": 166.7064,
        "meta_ephemeris_type": 0,
        "meta_classification_type": "U",
        "meta_norad_cat_id": 66875,
        "meta_element_set_no": 999,
        "meta_rev_at_epoch": 327,
        "meta_bstar": -0.029485744,
        "meta_mean_motion_dot": -0.0207221,
        "meta_mean_motion_ddot": 0,
        "tle_line1": "1 66875U 25281AD  25358.25002315 -.02072210  00000+0 -29486-1 0  9996",
        "tle_line2": "2 66875  43.0000  52.2753 0001103 287.2709 166.7064 15.58613030  3279"
      },
      "geometry": {
        "type": "Point",
        "coordinates": [
          176.08955394901687,
          36.83796486303564
        ]
      }
    },
    {
      "type": "Feature",
      "properties": {
        "norad_id": 66876,
        "name": "STARLINK-35702",
        "group": "last-30-days",
        "lat": 38.31079799508332,
        "lon": 171.63060138364435,
        "alt_km": 392.6003147273241,
        "timestamp": "2025-12-24T16:52:40.179990+00:00",
        "meta_object_name": "STARLINK-35702",
        "meta_object_id": "2025-281AE",
        "meta_epoch": "2025-12-24T06:00:02.000160",
        "meta_mean_motion": 15.58609749,
        "meta_eccentricity": 0.0001445,
        "meta_inclination": 43.0003,
        "meta_ra_of_asc_node": 52.2871,
        "meta_arg_of_pericenter": 283.8717,
        "meta_mean_anomaly": 166.2658,
        "meta_ephemeris_type": 0,
        "meta_classification_type": "U",
        "meta_norad_cat_id": 66876,
        "meta_element_set_no": 999,
        "meta_rev_at_epoch": 327,
        "meta_bstar": -0.029234694,
        "meta_mean_motion_dot": -0.02017997,
        "meta_mean_motion_ddot": 0,
        "tle_line1": "1 66876U 25281AE  25358.25002315 -.02017997  00000+0 -29235-1 0  9990",
        "tle_line2": "2 66876  43.0003  52.2871 0001445 283.8717 166.2658 15.58609749  3270"
      },
      "geometry": {
        "type": "Point",
        "coordinates": [
          171.63060138364435,
          38.31079799508332
        ]
      }
    }
  ]
}